ASIASTAR                
1 26107U 00016A   26087.85073138 -.00000347  00000+0  00000+0 0  9994
2 26107   8.9454  58.9996 0004801 313.0017 225.5178  1.00274330 95118
